{
  "type": "FeatureCollection",
  "features": [
    {
      "type": "Feature",
      "properties": {
        "norad_id": 27954,
        "name": "GALAXY 13 (HORIZONS-1)",
        "group": "intelsat",
        "lat": -0.7438614426127198,
        "lon": 28.92222561729016,
        "alt_km": 35793.290037473394,
        "timestamp": "2025-12-02T07:10:08.776984+00:00",
        "meta_object_name": "GALAXY 13 (HORIZONS-1)",
        "meta_object_id": "2003-044A",
        "meta_epoch": "2025-12-01T16:31:32.035872",
        "meta_mean_motion": 1.00271759,
        "meta_eccentricity": 0.0002091,
        "meta_inclination": 0.907,
        "meta_ra_of_asc_node": 86.6036,
        "meta_arg_of_pericenter": 158.1978,
        "meta_mean_anomaly": 283.8762,
        "meta_ephemeris_type": 0,
        "meta_classification_type": "U",
        "meta_norad_cat_id": 27954,
        "meta_element_set_no": 999,
        "meta_rev_at_epoch": 4459,
        "meta_bstar": 0,
        "meta_mean_motion_dot": 1.54e-06,
        "meta_mean_motion_ddot": 0,
        "tle_line1": "1 27954U 03044A   25335.68856523  .00000154  00000+0  00000+0 0  9997",
        "tle_line2": "2 27954   0.9070  86.6036 0002091 158.1978 283.8762  1.00271759 44595"
      },
      "geometry": {
        "type": "Point",
        "coordinates": [
          28.92222561729016,
          -0.7438614426127198
        ]
      }
    },
    {
      "type": "Feature",
      "properties": {
        "norad_id": 28358,
        "name": "INTELSAT 10-02",
        "group": "intelsat",
        "lat": 0.006829019789625795,
        "lon": 177.90394204249912,
        "alt_km": 35786.94170018947,
        "timestamp": "2025-12-02T07:10:08.776997+00:00",
        "meta_object_name": "INTELSAT 10-02",
        "meta_object_id": "2004-022A",
        "meta_epoch": "2025-12-01T17:14:05.460000",
        "meta_mean_motion": 1.00270385,
        "meta_eccentricity": 0.0001102,
        "meta_inclination": 0.04,
        "meta_ra_of_asc_node": 91.6394,
        "meta_arg_of_pericenter": 182.5327,
        "meta_mean_anomaly": 54.1897,
        "meta_ephemeris_type": 0,
        "meta_classification_type": "U",
        "meta_norad_cat_id": 28358,
        "meta_element_set_no": 999,
        "meta_rev_at_epoch": 7857,
        "meta_bstar": 0,
        "meta_mean_motion_dot": 1e-07,
        "meta_mean_motion_ddot": 0,
        "tle_line1": "1 28358U 04022A   25335.71811875  .00000010  00000+0  00000+0 0  9999",
        "tle_line2": "2 28358   0.0400  91.6394 0001102 182.5327  54.1897  1.00270385 78573"
      },
      "geometry": {
        "type": "Point",
        "coordinates": [
          177.90394204249912,
          0.006829019789625795
        ]
      }
    },
    {
      "type": "Feature",
      "properties": {
        "norad_id": 28626,
        "name": "XM-3 (RHYTHM)",
        "group": "intelsat",
        "lat": -0.1290423682292631,
        "lon": -17.24983778865399,
        "alt_km": 36155.786893268625,
        "timestamp": "2025-12-02T07:10:08.777009+00:00",
        "meta_object_name": "XM-3 (RHYTHM)",
        "meta_object_id": "2005-008A",
        "meta_epoch": "2025-12-01T16:19:10.717824",
        "meta_mean_motion": 0.98955107,
        "meta_eccentricity": 8.38e-05,
        "meta_inclination": 0.1433,
        "meta_ra_of_asc_node": 80.6256,
        "meta_arg_of_pericenter": 270.4663,
        "meta_mean_anomaly": 131.2697,
        "meta_ephemeris_type": 0,
        "meta_classification_type": "U",
        "meta_norad_cat_id": 28626,
        "meta_element_set_no": 999,
        "meta_rev_at_epoch": 4064,
        "meta_bstar": 0,
        "meta_mean_motion_dot": -2.1e-06,
        "meta_mean_motion_ddot": 0,
        "tle_line1": "1 28626U 05008A   25335.67998516 -.00000210  00000+0  00000+0 0  9998",
        "tle_line2": "2 28626   0.1433  80.6256 0000838 270.4663 131.2697  0.98955107 40648"
      },
      "geometry": {
        "type": "Point",
        "coordinates": [
          -17.24983778865399,
          -0.1290423682292631
        ]
      }
    },
    {
      "type": "Feature",
      "properties": {
        "norad_id": 28659,
        "name": "DIRECTV 8",
        "group": "intelsat",
        "lat": 0.030105281283458796,
        "lon": 59.887799289407006,
        "alt_km": 35799.0912293463,
        "timestamp": "2025-12-02T07:10:08.777021+00:00",
        "meta_object_name": "DIRECTV 8",
        "meta_object_id": "2005-019A",
        "meta_epoch": "2025-12-01T16:40:23.687040",
        "meta_mean_motion": 1.00271171,
        "meta_eccentricity": 0.0003189,
        "meta_inclination": 0.0147,
        "meta_ra_of_asc_node": 288.7925,
        "meta_arg_of_pericenter": 328.872,
        "meta_mean_anomaly": 304.2088,
        "meta_ephemeris_type": 0,
        "meta_classification_type": "U",
        "meta_norad_cat_id": 28659,
        "meta_element_set_no": 999,
        "meta_rev_at_epoch": 7509,
        "meta_bstar": 0,
        "meta_mean_motion_dot": 2.3e-07,
        "meta_mean_motion_ddot": 0,
        "tle_line1": "1 28659U 05019A   25335.69471860  .00000023  00000+0  00000+0 0  9997",
        "tle_line2": "2 28659   0.0147 288.7925 0003189 328.8720 304.2088  1.00271171 75092"
      },
      "geometry": {
        "type": "Point",
        "coordinates": [
          59.887799289407006,
          0.030105281283458796
        ]
      }
    },
    {
      "type": "Feature",
      "properties": {
        "norad_id": 28702,
        "name": "GALAXY 28 (G-28)",
        "group": "intelsat",
        "lat": 0.4449011662843655,
        "lon": 90.18776859280948,
        "alt_km": 35797.45394219727,
        "timestamp": "2025-12-02T07:10:08.777034+00:00",
        "meta_object_name": "GALAXY 28 (G-28)",
        "meta_object_id": "2005-022A",
        "meta_epoch": "2025-12-01T15:06:17.700192",
        "meta_mean_motion": 1.00270786,
        "meta_eccentricity": 0.0002652,
        "meta_inclination": 2.7903,
        "meta_ra_of_asc_node": 81.4073,
        "meta_arg_of_pericenter": 180.5131,
        "meta_mean_anomaly": 306.6879,
        "meta_ephemeris_type": 0,
        "meta_classification_type": "U",
        "meta_norad_cat_id": 28702,
        "meta_element_set_no": 999,
        "meta_rev_at_epoch": 4999,
        "meta_bstar": 0,
        "meta_mean_motion_dot": -1.66e-06,
        "meta_mean_motion_ddot": 0,
        "tle_line1": "1 28702U 05022A   25335.62937153 -.00000166  00000+0  00000+0 0  9994",
        "tle_line2": "2 28702   2.7903  81.4073 0002652 180.5131 306.6879  1.00270786 49990"
      },
      "geometry": {
        "type": "Point",
        "coordinates": [
          90.18776859280948,
          0.4449011662843655
        ]
      }
    },
    {
      "type": "Feature",
      "properties": {
        "norad_id": 29236,
        "name": "GALAXY 16 (G-16)",
        "group": "intelsat",
        "lat": 0.0019705288412791714,
        "lon": 79.9029811066724,
        "alt_km": 35798.21452165081,
        "timestamp": "2025-12-02T07:10:08.777046+00:00",
        "meta_object_name": "GALAXY 16 (G-16)",
        "meta_object_id": "2006-023A",
        "meta_epoch": "2025-12-01T15:03:17.987328",
        "meta_mean_motion": 1.00270395,
        "meta_eccentricity": 0.0002803,
        "meta_inclination": 0.0267,
        "meta_ra_of_asc_node": 225.3015,
        "meta_arg_of_pericenter": 25.4892,
        "meta_mean_anomaly": 306.776,
        "meta_ephemeris_type": 0,
        "meta_classification_type": "U",
        "meta_norad_cat_id": 29236,
        "meta_element_set_no": 999,
        "meta_rev_at_epoch": 7099,
        "meta_bstar": 0,
        "meta_mean_motion_dot": -1.05e-06,
        "meta_mean_motion_ddot": 0,
        "tle_line1": "1 29236U 06023A   25335.62729152 -.00000105  00000+0  00000+0 0  9990",
        "tle_line2": "2 29236   0.0267 225.3015 0002803  25.4892 306.7760  1.00270395 70991"
      },
      "geometry": {
        "type": "Point",
        "coordinates": [
          79.9029811066724,
          0.0019705288412791714
        ]
      }
    },
    {
      "type": "Feature",
      "properties": {
        "norad_id": 29494,
        "name": "DIRECTV 9S",
        "group": "intelsat",
        "lat": -0.16613478693920547,
        "lon": 77.71184907857564,
        "alt_km": 35799.36596078926,
        "timestamp": "2025-12-02T07:10:08.777058+00:00",
        "meta_object_name": "DIRECTV 9S",
        "meta_object_id": "2006-043A",
        "meta_epoch": "2025-12-01T11:37:15.220416",
        "meta_mean_motion": 1.00270787,
        "meta_eccentricity": 0.00031036,
        "meta_inclination": 1.9085,
        "meta_ra_of_asc_node": 83.3306,
        "meta_arg_of_pericenter": 164.8437,
        "meta_mean_anomaly": 255.5441,
        "meta_ephemeris_type": 0,
        "meta_classification_type": "U",
        "meta_norad_cat_id": 29494,
        "meta_element_set_no": 999,
        "meta_rev_at_epoch": 4940,
        "meta_bstar": 0,
        "meta_mean_motion_dot": -9.2e-07,
        "meta_mean_motion_ddot": 0,
        "tle_line1": "1 29494U 06043A   25335.48420394 -.00000092  00000+0  00000+0 0  9993",
        "tle_line2": "2 29494   1.9085  83.3306 0003103 164.8437 255.5441  1.00270787 49401"
      },
      "geometry": {
        "type": "Point",
        "coordinates": [
          77.71184907857564,
          -0.16613478693920547
        ]
      }
    }
  ]
}